{
  "norad_id": 65906,
  "name": "STARLINK-35385",
  "history": [
    {
      "epoch": "2026-03-28T19:31:29.849088Z",
      "apogee_km": 476.1928784220054,
      "perigee_km": 474.2695491664863,
      "latitude_deg": -1.9292940542086245e-05,
      "longitude_deg": 163.30861699759916,
      "height_km": 476.3232970463388,
      "semi_major_axis_km": 6853.368213794245,
      "eccentricity": 0.00014032,
      "inclination_deg": 53.1592,
      "raan_deg": 282.4116,
      "arg_perigee_deg": 101.653,
      "mean_anomaly_deg": 258.4628,
      "mean_motion_rev_day": 15.30194593
    },
    {
      "epoch": "2026-03-30T06:00:38.323584Z",
      "apogee_km": 475.8798523605237,
      "perigee_km": 474.3204667772352,
      "latitude_deg": -8.441729438993927e-06,
      "longitude_deg": -2.066661447496183,
      "height_km": 475.78596654307626,
      "semi_major_axis_km": 6853.237159568879,
      "eccentricity": 0.00011377,
      "inclination_deg": 53.1586,
      "raan_deg": 275.7379,
      "arg_perigee_deg": 74.1938,
      "mean_anomaly_deg": 285.9188,
      "mean_motion_rev_day": 15.30238486
    },
    {
      "epoch": "2026-03-30T12:16:51.369024Z",
      "apogee_km": 476.85136818446335,
      "perigee_km": 473.4466556937314,
      "latitude_deg": 5.472869259797932e-05,
      "longitude_deg": -97.59438175380784,
      "height_km": 476.29550554484877,
      "semi_major_axis_km": 6853.286011939097,
      "eccentricity": 0.0002484,
      "inclination_deg": 53.1578,
      "raan_deg": 274.522,
      "arg_perigee_deg": 98.4578,
      "mean_anomaly_deg": 261.6705,
      "mean_motion_rev_day": 15.30222124
    }
  ]
}